1 32789U 08021G   16013.91161196 +.00005283 +00000-0 +40684-3 0  9998
2 32789 097.6278 075.8047 0013130 067.8081 292.4535 15.02008740418582
